EUTELSAT 7A             
1 28187U 04008A   25243.71206275  .00000105  00000+0  00000+0 0  9998
2 28187   5.0889  75.4650 0001160 119.9456 261.8737  1.00274121 78454
EUTELSAT 174A           
1 28924U 05052A   25243.84552490  .00000012  00000+0  00000+0 0  9991
2 28924   3.4796  80.1322 0006156  77.8965 300.6335  1.00270728 49439
EUTELSAT HOTBIRD 13B    
1 29270U 06032A   25243.89627998  .00000159  00000+0  00000+0 0  9998
2 29270   0.9079  85.4900 0004066  69.6542 180.9316  1.00275125 44404
EUTELSAT HOTBIRD 13C    
1 33459U 08065A   25243.94350363 -.00000098  00000+0  00000+0 0  9998
2 33459   2.2004  82.6499 0004040  95.5957 129.2810  1.00272601 44448
EUTELSAT 36B            
1 36101U 09065A   25243.89241176  .00000116  00000+0  00000+0 0  9991
2 36101   0.0525 334.3373 0005857 186.0583 191.6641  1.00271069 57801
EUTELSAT KA-SAT 9A      
1 37258U 10069A   25243.91294771  .00000065  00000+0  00000+0 0  9996
2 37258   0.0514 319.5017 0003770 174.5217 183.9591  1.00273817 41108
EUTELSAT 7 WEST A       
1 37816U 11051A   25243.92544874 -.00000057  00000+0  00000+0 0  9993
2 37816   0.0731  29.2700 0005493 139.5215 137.4041  1.00272856 50988
EUTELSAT 16A            
1 37836U 11057A   25243.90739279  .00000107  00000+0  00000+0 0  9999
2 37836   0.0672   9.8021 0005377 150.8209 162.3477  1.00273184  4427
